OBJECT_NAME,OBJECT_ID,EPOCH,MEAN_MOTION,ECCENTRICITY,INCLINATION,RA_OF_ASC_NODE,ARG_OF_PERICENTER,MEAN_ANOMALY,EPHEMERIS_TYPE,CLASSIFICATION_TYPE,NORAD_CAT_ID,ELEMENT_SET_NO,REV_AT_EPOCH,BSTAR,MEAN_MOTION_DOT,MEAN_MOTION_DDOT
ALOS-2,2014-029A,2026-06-16T06:14:18.982752,14.79467928,.00016433,97.9225,264.4363,92.6131,267.5268,0,U,39766,999,65144,.13364455E-3,.947E-5,0
KAZEOSAT 2,2014-033A,2026-06-16T06:53:16.208160,14.85466725,.00079704,97.5401,6.9466,332.7073,27.3724,0,U,40010,999,64882,-.8946919E-5,-.127E-5,0
HODOYOSHI-4,2014-033B,2026-06-16T07:03:58.699296,14.88126412,.00225559,97.5447,352.1602,311.7303,48.1985,0,U,40011,999,64867,.73505942E-4,.627E-5,0
DEIMOS-2,2014-033D,2026-06-16T05:53:15.067392,14.93721313,.00014715,97.5830,41.7676,46.0473,314.0869,0,U,40013,999,63758,.89331269E-4,.891E-5,0
HODOYOSHI-3,2014-033F,2026-06-16T04:11:22.004736,14.85386853,.00327872,97.6416,330.2558,0.6455,359.4797,0,U,40015,999,64747,.10836227E-3,.889E-5,0
SPOT 7,2014-034A,2026-06-16T06:59:21.454656,14.60957696,.00012105,98.0633,229.8059,91.5387,268.5952,0,U,40053,999,63700,.72847249E-4,.312E-5,0
SKYSAT-B,2014-037D,2026-06-15T23:34:03.953280,14.88025146,.00042363,98.3839,125.8782,286.9589,73.1162,0,U,40072,999,64578,.13408475E-3,.117E-4,0
WORLDVIEW-3 (WV-3),2014-048A,2026-06-16T06:59:38.654304,14.85020781,.00010595,97.8567,242.1366,27.3482,332.7789,0,U,40115,999,64177,.88058345E-4,.698E-5,0
GAOFEN-2,2014-049A,2026-06-16T07:09:04.518144,14.80897652,.00060698,98.0114,231.5059,230.3548,129.7129,0,U,40118,999,63910,.41660011E-4,.268E-5,0
YAOGAN-21,2014-053A,2026-06-16T07:26:55.441824,15.26363535,.00098754,97.1470,207.5833,95.8554,264.3811,0,U,40143,999,65482,.24046922E-3,.619E-4,0
YAOGAN-22,2014-063A,2026-06-16T06:33:13.723200,13.15531105,.00063229,100.7722,318.5311,187.3525,172.7494,0,U,40275,999,55969,-.23517936E-4,-.56E-6,0
ASNARO,2014-070A,2026-06-16T07:16:32.801088,15.19421915,.00054212,97.3453,243.4408,168.2265,191.9097,0,U,40298,999,64387,.25796418E-3,.5399E-4,0
YAOGAN-24,2014-072A,2026-06-16T08:04:33.871296,14.76220961,.00125348,98.1486,304.6668,266.5407,93.4368,0,U,40310,999,62359,.54985054E-4,.328E-5,0
CBERS 4,2014-079A,2026-06-16T08:09:52.667424,14.35508755,.00018748,98.3535,224.1982,64.0495,296.0885,0,U,40336,999,60383,.37641408E-4,.66E-6,0
YAOGAN-26,2014-088A,2026-06-16T07:01:42.968352,15.47322396,.00060975,97.0634,167.5230,68.1175,292.0723,0,U,40362,999,63756,.40630677E-3,.20693E-3,0
SMAP,2015-003A,2026-06-16T06:13:30.098496,14.63365953,.00013174,98.1276,174.3671,96.1335,264.0017,0,U,40376,999,60748,.7812254E-4,.357E-5,0
KOMPSAT-3A,2015-014A,2026-06-16T05:04:38.467776,15.53953986,.0056404,97.6883,158.5024,178.0382,182.1103,0,U,40536,999,62166,.30781103E-3,.21211E-3,0
SENTINEL-2A,2015-028A,2026-06-16T07:20:03.706944,14.30815044,.0001091,98.5690,242.1695,89.1407,270.9901,0,U,40697,999,57360,.37784926E-4,.55E-6,0
GAOFEN-8,2015-030A,2026-06-16T07:27:52.910784,15.45918448,.00086196,97.6899,0.6276,189.8140,170.2942,0,U,40701,999,61131,.22694897E-3,.10959E-3,0
CARBONITE 1 (CBNT-1),2015-032D,2026-06-16T07:20:14.107776,14.83582979,.00132149,97.6497,345.4085,301.0702,58.9215,0,U,40718,999,58921,.12450603E-3,.976E-5,0
YAOGAN-27,2015-040A,2026-06-16T06:26:25.675008,13.16068607,.00076354,100.1143,153.6909,212.9191,147.1448,0,U,40878,999,51754,-.36718557E-3,-.182E-5,0
GAOFEN-9 01,2015-047A,2026-06-16T07:41:15.936576,14.82882515,.00283452,97.6275,203.0545,140.5219,219.8067,0,U,40894,999,58006,.10981106E-3,.845E-5,0
YAOGAN-28,2015-064A,2026-06-16T08:09:41.933088,15.27411551,.00105327,97.3077,305.6185,186.1821,173.9290,0,U,41026,999,59055,.21666816E-3,.5749E-4,0
YAOGAN-29,2015-069A,2026-06-16T07:13:02.863776,14.83084373,.00026371,98.0023,195.9320,56.1132,304.0332,0,U,41038,999,57049,.59753636E-4,.432E-5,0
KENT RIDGE 1,2015-077B,2026-06-15T15:46:26.675616,15.23124673,.00082377,14.9790,277.3724,216.8531,143.1225,0,U,41167,999,58086,.12259081E-3,.3746E-4,0
GAOFEN-4,2015-083A,2026-06-16T00:33:38.883744,1.00269269,.00043898,0.3538,83.7871,115.3911,179.2311,0,U,41194,999,3851,0,-.334E-5,0
JASON-3,2016-002A,2026-06-16T07:17:11.196384,12.87628037,.00085263,66.0402,127.6925,272.8452,87.1590,0,U,41240,999,48713,-.42189892E-4,-.73E-6,0
SENTINEL-3A,2016-011A,2026-06-16T07:19:00.545088,14.26739781,.00013959,98.6249,234.7012,102.3557,257.7780,0,U,41335,999,53793,.58132043E-4,.97E-6,0
ZIYUAN 3-02 (ZY 3-02),2016-033A,2026-06-16T06:27:17.018208,15.21474434,.00112127,97.3837,243.0615,293.3174,66.6882,0,U,41556,999,55784,.19498937E-3,.4321E-4,0
CARTOSAT-2C,2016-040A,2026-06-16T08:03:49.281984,15.19184680,.00099683,97.4483,227.3258,132.7857,227.4218,0,U,41599,999,55358,.11099788E-3,.2269E-4,0
