{
  "version": 1,
  "fetchedAt": "2026-06-16T16:59:36.124Z",
  "source": "celestrak-gp",
  "counts": {
    "station": 25,
    "satellite": 400,
    "debris": 250
  },
  "objects": [
    {
      "id": "39766",
      "name": "ALOS-2",
      "noradId": 39766,
      "line1": "1 39766U 14029A   26167.25994193  .00000947  00000+0  13364-3 0  9990",
      "line2": "2 39766  97.9225 264.4363 0001643  92.6131 267.5268 14.79467928651444",
      "category": "satellite"
    },
    {
      "id": "41038",
      "name": "YAOGAN-29",
      "noradId": 41038,
      "line1": "1 41038U 15069A   26167.30072759  .00000432  00000+0  59754-4 0  9994",
      "line2": "2 41038  98.0023 195.9320 0002637  56.1132 304.0332 14.83084373570496",
      "category": "satellite"
    },
    {
      "id": "40010",
      "name": "KAZEOSAT 2",
      "noradId": 40010,
      "line1": "1 40010U 14033A   26167.28699315 -.00000127  00000+0 -89469-5 0  9993",
      "line2": "2 40010  97.5401   6.9466 0007970 332.7073  27.3724 14.85466725648823",
      "category": "satellite"
    },
    {
      "id": "40011",
      "name": "HODOYOSHI-4",
      "noradId": 40011,
      "line1": "1 40011U 14033B   26167.29442939  .00000627  00000+0  73506-4 0  9990",
      "line2": "2 40011  97.5447 352.1602 0022555 311.7303  48.1985 14.88126412648673",
      "category": "satellite"
    },
    {
      "id": "40013",
      "name": "DEIMOS-2",
      "noradId": 40013,
      "line1": "1 40013U 14033D   26167.24531328  .00000891  00000+0  89331-4 0  9994",
      "line2": "2 40013  97.5830  41.7676 0001471  46.0473 314.0869 14.93721313637584",
      "category": "satellite"
    },
    {
      "id": "40015",
      "name": "HODOYOSHI-3",
      "noradId": 40015,
      "line1": "1 40015U 14033F   26167.17456024  .00000889  00000+0  10836-3 0  9997",
      "line2": "2 40015  97.6416 330.2558 0032787   0.6455 359.4797 14.85386853647471",
      "category": "satellite"
    },
    {
      "id": "40053",
      "name": "SPOT 7",
      "noradId": 40053,
      "line1": "1 40053U 14034A   26167.29122054  .00000312  00000+0  72847-4 0  9998",
      "line2": "2 40053  98.0633 229.8059 0001210  91.5387 268.5952 14.60957696637001",
      "category": "satellite"
    },
    {
      "id": "40072",
      "name": "SKYSAT-B",
      "noradId": 40072,
      "line1": "1 40072U 14037D   26166.98199020  .00001170  00000+0  13408-3 0  9994",
      "line2": "2 40072  98.3839 125.8782 0004236 286.9589  73.1162 14.88025146645789",
      "category": "satellite"
    },
    {
      "id": "40115",
      "name": "WORLDVIEW-3 (WV-3)",
      "noradId": 40115,
      "line1": "1 40115U 14048A   26167.29141961  .00000698  00000+0  88058-4 0  9998",
      "line2": "2 40115  97.8567 242.1366 0001059  27.3482 332.7789 14.85020781641770",
      "category": "satellite"
    },
    {
      "id": "40118",
      "name": "GAOFEN-2",
      "noradId": 40118,
      "line1": "1 40118U 14049A   26167.29796896  .00000268  00000+0  41660-4 0  9996",
      "line2": "2 40118  98.0114 231.5059 0006069 230.3548 129.7129 14.80897652639100",
      "category": "satellite"
    },
    {
      "id": "40143",
      "name": "YAOGAN-21",
      "noradId": 40143,
      "line1": "1 40143U 14053A   26167.31036391  .00006190  00000+0  24047-3 0  9998",
      "line2": "2 40143  97.1470 207.5833 0009875  95.8554 264.3811 15.26363535654824",
      "category": "satellite"
    },
    {
      "id": "40275",
      "name": "YAOGAN-22",
      "noradId": 40275,
      "line1": "1 40275U 14063A   26167.27307550 -.00000056  00000+0 -23518-4 0  9998",
      "line2": "2 40275 100.7722 318.5311 0006322 187.3525 172.7494 13.15531105559698",
      "category": "satellite"
    },
    {
      "id": "40298",
      "name": "ASNARO",
      "noradId": 40298,
      "line1": "1 40298U 14070A   26167.30315742  .00005399  00000+0  25796-3 0  9999",
      "line2": "2 40298  97.3453 243.4408 0005421 168.2265 191.9097 15.19421915643875",
      "category": "satellite"
    },
    {
      "id": "40310",
      "name": "YAOGAN-24",
      "noradId": 40310,
      "line1": "1 40310U 14072A   26167.33650314  .00000328  00000+0  54985-4 0  9996",
      "line2": "2 40310  98.1486 304.6668 0012534 266.5407  93.4368 14.76220961623590",
      "category": "satellite"
    },
    {
      "id": "40336",
      "name": "CBERS 4",
      "noradId": 40336,
      "line1": "1 40336U 14079A   26167.34019291  .00000066  00000+0  37641-4 0  9994",
      "line2": "2 40336  98.3535 224.1982 0001874  64.0495 296.0885 14.35508755603838",
      "category": "satellite"
    },
    {
      "id": "40362",
      "name": "YAOGAN-26",
      "noradId": 40362,
      "line1": "1 40362U 14088A   26167.29285843  .00020693  00000+0  40631-3 0  9995",
      "line2": "2 40362  97.0634 167.5230 0006097  68.1175 292.0723 15.47322396637564",
      "category": "satellite"
    },
    {
      "id": "40376",
      "name": "SMAP",
      "noradId": 40376,
      "line1": "1 40376U 15003A   26167.25937614  .00000357  00000+0  78123-4 0  9997",
      "line2": "2 40376  98.1276 174.3671 0001317  96.1335 264.0017 14.63365953607483",
      "category": "satellite"
    },
    {
      "id": "40536",
      "name": "KOMPSAT-3A",
      "noradId": 40536,
      "line1": "1 40536U 15014A   26167.21155634  .00021211  00000+0  30781-3 0  9996",
      "line2": "2 40536  97.6883 158.5024 0056404 178.0382 182.1103 15.53953986621665",
      "category": "satellite"
    },
    {
      "id": "40697",
      "name": "SENTINEL-2A",
      "noradId": 40697,
      "line1": "1 40697U 15028A   26167.30559846  .00000055  00000+0  37785-4 0  9997",
      "line2": "2 40697  98.5690 242.1695 0001091  89.1407 270.9901 14.30815044573603",
      "category": "satellite"
    },
    {
      "id": "40701",
      "name": "GAOFEN-8",
      "noradId": 40701,
      "line1": "1 40701U 15030A   26167.31102906  .00010959  00000+0  22695-3 0  9995",
      "line2": "2 40701  97.6899   0.6276 0008619 189.8140 170.2942 15.45918448611314",
      "category": "satellite"
    },
    {
      "id": "40718",
      "name": "CARBONITE 1 (CBNT-1)",
      "noradId": 40718,
      "line1": "1 40718U 15032D   26167.30571884  .00000976  00000+0  12451-3 0  9996",
      "line2": "2 40718  97.6497 345.4085 0013214 301.0702  58.9215 14.83582979589218",
      "category": "satellite"
    },
    {
      "id": "40878",
      "name": "YAOGAN-27",
      "noradId": 40878,
      "line1": "1 40878U 15040A   26167.26835272 -.00000182  00000+0 -36719-3 0  9995",
      "line2": "2 40878 100.1143 153.6909 0007635 212.9191 147.1448 13.16068607517547",
      "category": "satellite"
    },
    {
      "id": "40894",
      "name": "GAOFEN-9 01",
      "noradId": 40894,
      "line1": "1 40894U 15047A   26167.32032334  .00000845  00000+0  10981-3 0  9992",
      "line2": "2 40894  97.6275 203.0545 0028345 140.5219 219.8067 14.82882515580062",
      "category": "satellite"
    },
    {
      "id": "41026",
      "name": "YAOGAN-28",
      "noradId": 41026,
      "line1": "1 41026U 15064A   26167.34006867  .00005749  00000+0  21667-3 0  9994",
      "line2": "2 41026  97.3077 305.6185 0010532 186.1821 173.9290 15.27411551590551",
      "category": "satellite"
    },
    {
      "id": "41167",
      "name": "KENT RIDGE 1",
      "noradId": 41167,
      "line1": "1 41167U 15077B   26166.65725319  .00003746  00000+0  12259-3 0  9999",
      "line2": "2 41167  14.9790 277.3724 0008237 216.8531 143.1225 15.23124673580868",
      "category": "satellite"
    },
    {
      "id": "41194",
      "name": "GAOFEN-4",
      "noradId": 41194,
      "line1": "1 41194U 15083A   26167.02336671 -.00000334  00000+0  00000+0 0  9995",
      "line2": "2 41194   0.3538  83.7871 0004389 115.3911 179.2311  1.00269269 38515",
      "category": "satellite"
    },
    {
      "id": "41240",
      "name": "JASON-3",
      "noradId": 41240,
      "line1": "1 41240U 16002A   26167.30360181 -.00000073  00000+0 -42190-4 0  9995",
      "line2": "2 41240  66.0402 127.6925 0008526 272.8452  87.1590 12.87628037487131",
      "category": "satellite"
    },
    {
      "id": "41335",
      "name": "SENTINEL-3A",
      "noradId": 41335,
      "line1": "1 41335U 16011A   26167.30486742  .00000097  00000+0  58132-4 0  9999",
      "line2": "2 41335  98.6249 234.7012 0001395 102.3557 257.7780 14.26739781537937",
      "category": "satellite"
    },
    {
      "id": "41556",
      "name": "ZIYUAN 3-02 (ZY 3-02)",
      "noradId": 41556,
      "line1": "1 41556U 16033A   26167.26894697  .00004321  00000+0  19499-3 0  9991",
      "line2": "2 41556  97.3837 243.0615 0011212 293.3174  66.6882 15.21474434557847",
      "category": "satellite"
    },
    {
      "id": "41599",
      "name": "CARTOSAT-2C",
      "noradId": 41599,
      "line1": "1 41599U 16040A   26167.33598706  .00002269  00000+0  11100-3 0  9996",
      "line2": "2 41599  97.4483 227.3258 0009968 132.7857 227.4218 15.19184680553584",
      "category": "satellite"
    }
  ]
}